{"type": "FeatureCollection", "features": [ {"type": "Feature", "properties": {"norad_id": 36701, "name": "FENGYUN 1C DEB", "group": "fengyun-1c-debris", "lat": 11.188037311687328, "lon": -75.35130931829771, "alt_km": 1005.6826118464114, "timestamp": "2025-12-02T06:27:53.302111+00:00", "meta": {"OBJECT_NAME": "FENGYUN 1C DEB", "OBJECT_ID": "1999-025DZX", "EPOCH": "2025-11-30T15:53:09.500928", "MEAN_MOTION": 13.71224206, "ECCENTRICITY": 0.02612081, "INCLINATION": 102.7441, "RA_OF_ASC_NODE": 285.087, "ARG_OF_PERICENTER": 280.9421, "MEAN_ANOMALY": 76.243, "EPHEMERIS_TYPE": 0, "CLASSIFICATION_TYPE": "U", "NORAD_CAT_ID": 36701, "ELEMENT_SET_NO": 999, "REV_AT_EPOCH": 60973, "BSTAR": 0.0027853288, "MEAN_MOTION_DOT": 3.111e-05, "MEAN_MOTION_DDOT": 0}, "tle": {"line1": "1 36701U 99025DZX 25334.66191552  .00003111  00000+0  27853-2 0  9996", "line2": "2 36701 102.7441 285.0870 0261208 280.9421  76.2430 13.71224206609738"}}, "geometry": {"type": "Point", "coordinates": [-75.35130931829771, 11.188037311687328]}}, {"type": "Feature", "properties": {"norad_id": 36707, "name": "FENGYUN 1C DEB", "group": "fengyun-1c-debris", "lat": 11.283505224422225, "lon": 20.78148296412977, "alt_km": 863.3082592290757, "timestamp": "2025-12-02T06:27:53.302121+00:00", "meta": {"OBJECT_NAME": "FENGYUN 1C DEB", "OBJECT_ID": "1999-025EAD", "EPOCH": "2025-11-29T08:56:27.364416", "MEAN_MOTION": 14.17242716, "ECCENTRICITY": 0.00499722, "INCLINATION": 98.7542, "RA_OF_ASC_NODE": 19.691, "ARG_OF_PERICENTER": 159.2794, "MEAN_ANOMALY": 201.0422, "EPHEMERIS_TYPE": 0, "CLASSIFICATION_TYPE": "U", "NORAD_CAT_ID": 36707, "ELEMENT_SET_NO": 999, "REV_AT_EPOCH": 63890, "BSTAR": 0.0007860803, "MEAN_MOTION_DOT": 1.563e-05, "MEAN_MOTION_DDOT": 0}, "tle": {"line1": "1 36707U 99025EAD 25333.37253894  .00001563  00000+0  78608-3 0  9991", "line2": "2 36707  98.7542  19.6910 0049972 159.2794 201.0422 14.17242716638906"}}, "geometry": {"type": "Point", "coordinates": [20.78148296412977, 11.283505224422225]}}, {"type": "Feature", "properties": {"norad_id": 36710, "name": "FENGYUN 1C DEB", "group": "fengyun-1c-debris", "lat": 41.38398951449642, "lon": -139.08347437796232, "alt_km": 710.9325593973999, "timestamp": "2025-12-02T06:27:53.302130+00:00", "meta": {"OBJECT_NAME": "FENGYUN 1C DEB", "OBJECT_ID": "1999-025EAG", "EPOCH": "2025-11-29T21:30:05.041152", "MEAN_MOTION": 14.49611424, "ECCENTRICITY": 0.00675842, "INCLINATION": 98.3816, "RA_OF_ASC_NODE": 31.0929, "ARG_OF_PERICENTER": 220.4474, "MEAN_ANOMALY": 139.1685, "EPHEMERIS_TYPE": 0, "CLASSIFICATION_TYPE": "U", "NORAD_CAT_ID": 36710, "ELEMENT_SET_NO": 999, "REV_AT_EPOCH": 64767, "BSTAR": 0.0017320557, "MEAN_MOTION_DOT": 6.808e-05, "MEAN_MOTION_DDOT": 0}, "tle": {"line1": "1 36710U 99025EAG 25333.89589168  .00006808  00000+0  17321-2 0  9999", "line2": "2 36710  98.3816  31.0929 0067584 220.4474 139.1685 14.49611424647670"}}, "geometry": {"type": "Point", "coordinates": [-139.08347437796232, 41.38398951449642]}}, {"type": "Feature", "properties": {"norad_id": 36711, "name": "FENGYUN 1C DEB", "group": "fengyun-1c-debris", "lat": -63.87705092276083, "lon": 15.719523700385622, "alt_km": 718.9757912984396, "timestamp": "2025-12-02T06:27:53.302140+00:00", "meta": {"OBJECT_NAME": "FENGYUN 1C DEB", "OBJECT_ID": "1999-025EAH", "EPOCH": "2025-11-29T18:49:32.545344", "MEAN_MOTION": 14.42080972, "ECCENTRICITY": 0.01000486, "INCLINATION": 100.8061, "RA_OF_ASC_NODE": 349.6584, "ARG_OF_PERICENTER": 244.1532, "MEAN_ANOMALY": 114.9305, "EPHEMERIS_TYPE": 0, "CLASSIFICATION_TYPE": "U", "NORAD_CAT_ID": 36711, "ELEMENT_SET_NO": 999, "REV_AT_EPOCH": 64124, "BSTAR": 0.0024295961, "MEAN_MOTION_DOT": 8.419e-05, "MEAN_MOTION_DDOT": 0}, "tle": {"line1": "1 36711U 99025EAH 25333.78440446  .00008419  00000+0  24296-2 0  9992", "line2": "2 36711 100.8061 349.6584 0100048 244.1532 114.9305 14.42080972641246"}}, "geometry": {"type": "Point", "coordinates": [15.719523700385622, -63.87705092276083]}}, {"type": "Feature", "properties": {"norad_id": 36716, "name": "FENGYUN 1C DEB", "group": "fengyun-1c-debris", "lat": -22.58160787029983, "lon": 71.55021324320487, "alt_km": 875.4823292513993, "timestamp": "2025-12-02T06:27:53.302150+00:00", "meta": {"OBJECT_NAME": "FENGYUN 1C DEB", "OBJECT_ID": "1999-025EAN", "EPOCH": "2025-12-01T12:10:52.167072", "MEAN_MOTION": 13.88402235, "ECCENTRICITY": 0.01480738, "INCLINATION": 99.2271, "RA_OF_ASC_NODE": 254.6729, "ARG_OF_PERICENTER": 259.27, "MEAN_ANOMALY": 99.1757, "EPHEMERIS_TYPE": 0, "CLASSIFICATION_TYPE": "U", "NORAD_CAT_ID": 36716, "ELEMENT_SET_NO": 999, "REV_AT_EPOCH": 62775, "BSTAR": 0.00027607532, "MEAN_MOTION_DOT": 3.16e-06, "MEAN_MOTION_DDOT": 0}, "tle": {"line1": "1 36716U 99025EAN 25335.50754823  .00000316  00000+0  27608-3 0  9995", "line2": "2 36716  99.2271 254.6729 0148073 259.2700  99.1757 13.88402235627759"}}, "geometry": {"type": "Point", "coordinates": [71.55021324320487, -22.58160787029983]}}, {"type": "Feature", "properties": {"norad_id": 36724, "name": "FENGYUN 1C DEB", "group": "fengyun-1c-debris", "lat": 53.93187395070439, "lon": -159.5759844233813, "alt_km": 817.7868141927802, "timestamp": "2025-12-02T06:27:53.302160+00:00", "meta": {"OBJECT_NAME": "FENGYUN 1C DEB", "OBJECT_ID": "1999-025EAW", "EPOCH": "2025-11-27T13:41:53.549088", "MEAN_MOTION": 14.25075698, "ECCENTRICITY": 0.01031333, "INCLINATION": 99.4692, "RA_OF_ASC_NODE": 2.111, "ARG_OF_PERICENTER": 240.3574, "MEAN_ANOMALY": 273.5405, "EPHEMERIS_TYPE": 0, "CLASSIFICATION_TYPE": "U", "NORAD_CAT_ID": 36724, "ELEMENT_SET_NO": 999, "REV_AT_EPOCH": 57256, "BSTAR": 0.0017985262, "MEAN_MOTION_DOT": 4.408e-05, "MEAN_MOTION_DDOT": 0}, "tle": {"line1": "1 36724U 99025EAW 25331.57075867  .00004408  00000+0  17985-2 0  9993", "line2": "2 36724  99.4692   2.1110 0103133 240.3574 273.5405 14.25075698572562"}}, "geometry": {"type": "Point", "coordinates": [-159.5759844233813, 53.93187395070439]}}, {"type": "Feature", "properties": {"norad_id": 36729, "name": "FENGYUN 1C DEB", "group": "fengyun-1c-debris", "lat": 22.259890032271525, "lon": -45.19101927100825, "alt_km": 861.3335020384384, "timestamp": "2025-12-02T06:27:53.302170+00:00", "meta": {"OBJECT_NAME": "FENGYUN 1C DEB", "OBJECT_ID": "1999-025EBB", "EPOCH": "2025-12-01T04:49:03.522144", "MEAN_MOTION": 14.10297876, "ECCENTRICITY": 0.0045518, "INCLINATION": 98.7068, "RA_OF_ASC_NODE": 317.3705, "ARG_OF_PERICENTER": 289.5642, "MEAN_ANOMALY": 70.0617, "EPHEMERIS_TYPE": 0, "CLASSIFICATION_TYPE": "U", "NORAD_CAT_ID": 36729, "ELEMENT_SET_NO": 999, "REV_AT_EPOCH": 87089, "BSTAR": 0.0003119, "MEAN_MOTION_DOT": 5.16e-06, "MEAN_MOTION_DDOT": 0}, "tle": {"line1": "1 36729U 99025EBB 25335.20073521  .00000516  00000+0  31190-3 0  9998", "line2": "2 36729  98.7068 317.3705 0045518 289.5642  70.0617 14.10297876870890"}}, "geometry": {"type": "Point", "coordinates": [-45.19101927100825, 22.259890032271525]}}, {"type": "Feature", "properties": {"norad_id": 36734, "name": "FENGYUN 1C DEB", "group": "fengyun-1c-debris", "lat": -77.15016062059169, "lon": 67.18803445500998, "alt_km": 791.4805054786448, "timestamp": "2025-12-02T06:27:53.302180+00:00", "meta": {"OBJECT_NAME": "FENGYUN 1C DEB", "OBJECT_ID": "1999-025EBG", "EPOCH": "2025-12-01T13:59:58.851456", "MEAN_MOTION": 14.25718602, "ECCENTRICITY": 0.00353173, "INCLINATION": 99.0567, "RA_OF_ASC_NODE": 22.1143, "ARG_OF_PERICENTER": 250.5981, "MEAN_ANOMALY": 109.1379, "EPHEMERIS_TYPE": 0, "CLASSIFICATION_TYPE": "U", "NORAD_CAT_ID": 36734, "ELEMENT_SET_NO": 999, "REV_AT_EPOCH": 82575, "BSTAR": 0.0016061233, "MEAN_MOTION_DOT": 3.791e-05, "MEAN_MOTION_DDOT": 0}, "tle": {"line1": "1 36734U 99025EBG 25335.58332004  .00003791  00000+0  16061-2 0  9996", "line2": "2 36734  99.0567  22.1143 0035317 250.5981 109.1379 14.25718602825756"}}, "geometry": {"type": "Point", "coordinates": [67.18803445500998, -77.15016062059169]}}, {"type": "Feature", "properties": {"norad_id": 36736, "name": "FENGYUN 1C DEB", "group": "fengyun-1c-debris", "lat": 31.880662981077755, "lon": 44.15467803627406, "alt_km": 837.8188118740545, "timestamp": "2025-12-02T06:27:53.302190+00:00", "meta": {"OBJECT_NAME": "FENGYUN 1C DEB", "OBJECT_ID": "1999-025EBJ", "EPOCH": "2025-11-30T10:30:26.479872", "MEAN_MOTION": 14.25310583, "ECCENTRICITY": 0.00614987, "INCLINATION": 98.8074, "RA_OF_ASC_NODE": 47.8499, "ARG_OF_PERICENTER": 174.9248, "MEAN_ANOMALY": 185.2568, "EPHEMERIS_TYPE": 0, "CLASSIFICATION_TYPE": "U", "NORAD_CAT_ID": 36736, "ELEMENT_SET_NO": 999, "REV_AT_EPOCH": 88440, "BSTAR": 0.001858623, "MEAN_MOTION_DOT": 4.421e-05, "MEAN_MOTION_DDOT": 0}, "tle": {"line1": "1 36736U 99025EBJ 25334.43780648  .00004421  00000+0  18586-2 0  9997", "line2": "2 36736  98.8074  47.8499 0061498 174.9248 185.2568 14.25310583884408"}}, "geometry": {"type": "Point", "coordinates": [44.15467803627406, 31.880662981077755]}}, {"type": "Feature", "properties": {"norad_id": 36743, "name": "FENGYUN 1C DEB", "group": "fengyun-1c-debris", "lat": -72.14682907309273, "lon": 52.84273217131828, "alt_km": 818.7448132897716, "timestamp": "2025-12-02T06:27:53.302200+00:00", "meta": {"OBJECT_NAME": "FENGYUN 1C DEB", "OBJECT_ID": "1999-025EBR", "EPOCH": "2025-11-27T20:56:29.744736", "MEAN_MOTION": 14.2895777, "ECCENTRICITY": 0.0048245, "INCLINATION": 98.6571, "RA_OF_ASC_NODE": 20.248, "ARG_OF_PERICENTER": 57.0274, "MEAN_ANOMALY": 303.5532, "EPHEMERIS_TYPE": 0, "CLASSIFICATION_TYPE": "U", "NORAD_CAT_ID": 36743, "ELEMENT_SET_NO": 999, "REV_AT_EPOCH": 60525, "BSTAR": 0.00142, "MEAN_MOTION_DOT": 3.592e-05, "MEAN_MOTION_DDOT": 0}, "tle": {"line1": "1 36743U 99025EBR 25331.87256649  .00003592  00000+0  14200-2 0  9996", "line2": "2 36743  98.6571  20.2480 0048245  57.0274 303.5532 14.28957770605254"}}, "geometry": {"type": "Point", "coordinates": [52.84273217131828, -72.14682907309273]}}]}